IONOSFERA-M 4           
1 64877U 25155B   26165.53550501  .00000033  00000+0  34618-4 0  9995
2 64877  98.6030 127.4247 0000956 120.3243 239.8029 14.21488248 46029
MICROCARB               
1 64899U 25156A   26165.15947180  .00000449  00000+0  78846-4 0  9993
2 64899  97.9831 242.3508 0014984 282.8440  77.1094 14.72322667 47529
CO3D 3                  
1 64900U 25156B   26165.48889818  .00004370  00000+0  20487-3 0  9999
2 64900  97.4335 244.2204 0001325 131.7732 228.3616 15.20202805 49124
CO3D 4                  
1 64901U 25156C   26165.48904961  .00000249  00000+0  14600-4 0  9999
2 64901  97.4334 244.2206 0000406  11.5434 348.5811 15.20204285 49125
CO3D 2                  
1 64902U 25156D   26165.52152993  .00004364  00000+0  20462-3 0  9999
2 64902  97.4335 244.1515 0001482 108.6910 251.4486 15.20199989 49125
CO3D 1                  
1 64903U 25156E   26165.52168089  .00004890  00000+0  22888-3 0  9991
2 64903  97.4334 244.1518 0001258 112.5867 247.5502 15.20199285 49128
PRSC-S1                 
1 65055U 25164A   26165.47945293  .00004582  00000+0  31685-3 0  9996
2 65055  41.1314 303.0613 0007024 327.4474  32.5906 15.06437064 48022
SENTINEL-6B             
1 66514U 25264A   26165.27509800 -.00000060  00000+0  31961-5 0  9993
2 66514  66.0392 141.2269 0008033 269.2138  90.7956 12.80929963 26799
CAS500-3                
1 66655U 25274F   26165.52598715  .00001103  00000+0  12504-3 0  9999
2 66655  97.7447  93.6375 0006655 117.0015 243.1882 14.88315362 29750
CSG-3                   
1 67304U 26001A   26165.49861363  .00000291  00000+0  43149-4 0  9995
2 67304  97.8885 349.1393 0001337  94.4948 265.6418 14.82152139 24061
PRSC-E03                
1 68835U 26092A   26165.27210826  .00002482  00000+0  17133-3 0  9990
2 68835  38.0002 106.8693 0004257 341.9194  18.1416 15.06655242  7517
CAS500-2                
1 69013U 26100AK  26165.45411707  .00006441  00000+0  29683-3 0  9992
2 69013  97.4086  63.3568 0010929  43.3212 316.8881 15.20562128  6397
