OBJECT_NAME,OBJECT_ID,EPOCH,MEAN_MOTION,ECCENTRICITY,INCLINATION,RA_OF_ASC_NODE,ARG_OF_PERICENTER,MEAN_ANOMALY,EPHEMERIS_TYPE,CLASSIFICATION_TYPE,NORAD_CAT_ID,ELEMENT_SET_NO,REV_AT_EPOCH,BSTAR,MEAN_MOTION_DOT,MEAN_MOTION_DDOT
IONOSFERA-M 4,2025-155B,2026-06-14T12:51:07.632864,14.21488248,.0000956,98.6030,127.4247,120.3243,239.8029,0,U,64877,999,4602,.34618E-4,.33E-6,0
MICROCARB,2025-156A,2026-06-14T03:49:38.363520,14.72322667,.0014984,97.9831,242.3508,282.8440,77.1094,0,U,64899,999,4752,.78846141E-4,.449E-5,0
CO3D 3,2025-156B,2026-06-14T11:44:00.802752,15.20202805,.0001325,97.4335,244.2204,131.7732,228.3616,0,U,64900,999,4912,.20487E-3,.437E-4,0
CO3D 4,2025-156C,2026-06-14T11:44:13.886304,15.20204285,.0000406,97.4334,244.2206,11.5434,348.5811,0,U,64901,999,4912,.146E-4,.249E-5,0
CO3D 2,2025-156D,2026-06-14T12:31:00.185952,15.20199989,.0001482,97.4335,244.1515,108.6910,251.4486,0,U,64902,999,4912,.20462E-3,.4364E-4,0
CO3D 1,2025-156E,2026-06-14T12:31:13.228896,15.20199285,.0001258,97.4334,244.1518,112.5867,247.5502,0,U,64903,999,4912,.22888E-3,.489E-4,0
PRSC-S1,2025-164A,2026-06-14T11:30:24.733152,15.06437064,.0007024,41.1314,303.0613,327.4474,32.5906,0,U,65055,999,4802,.31685E-3,.4582E-4,0
SENTINEL-6B,2025-264A,2026-06-14T06:36:08.467200,12.80929963,.0008033,66.0392,141.2269,269.2138,90.7956,0,U,66514,999,2679,.31961E-5,-.6E-6,0
CAS500-3,2025-274F,2026-06-14T12:37:25.289760,14.88315362,.0006655,97.7447,93.6375,117.0015,243.1882,0,U,66655,999,2975,.12504E-3,.1103E-4,0
CSG-3,2026-001A,2026-06-14T11:58:00.217632,14.82152139,.0001337,97.8885,349.1393,94.4948,265.6418,0,U,67304,999,2406,.43149E-4,.291E-5,0
PRSC-E03,2026-092A,2026-06-14T06:31:50.153664,15.06655242,.0004257,38.0002,106.8693,341.9194,18.1416,0,U,68835,999,751,.17133E-3,.2482E-4,0
CAS500-2,2026-100AK,2026-06-14T10:53:55.714848,15.20562128,.0010929,97.4086,63.3568,43.3212,316.8881,0,U,69013,999,639,.29683E-3,.6441E-4,0
